STARLINK-5174           
1 54067U 22136S   25212.42451865 -.00000666  00000+0 -23786-4 0  9992
2 54067  53.2167 257.1938 0001104  79.3259 280.7858 15.08838053153440
STARLINK-5181           
1 54070U 22136V   25212.41715355  .00000641  00000+0  58349-4 0  9996
2 54070  53.2166 257.1487 0001117  84.8354 275.2766 15.08835051153445
STARLINK-5288           
1 55307U 23010AQ  25212.34915096 -.00000207  00000+0 -95236-5 0  9995
2 55307  69.9994 202.6934 0003772 265.3331  94.7397 14.98328544140615
STARLINK-5265           
1 55317U 23010BA  25212.39086601 -.00000133  00000+0 -33351-5 0  9990
2 55317  69.9997 202.4610 0003880 265.1366  94.9350 14.98330458141499
STARLINK-5180           
1 55318U 23010BB  25212.38669018  .00000231  00000+0  27184-4 0  9992
2 55318  69.9994 202.4190 0003787 265.0204  95.0523 14.98331326141495
STARLINK-6190           
1 56774U 23078H   25212.44094182  .00000263  00000+0  29851-4 0  9992
2 56774  69.9992 202.4000 0003634 268.6090  91.4653 14.98329504119048
