{
  "original_analysis": {
    "covered_bins": 36,
    "total_bins": 36,
    "coverage_percent": 100.0,
    "distribution": {
      "9": 237,
      "7": 299,
      "11": 222,
      "5": 175,
      "6": 300,
      "34": 325,
      "8": 363,
      "10": 232,
      "13": 201,
      "12": 224,
      "22": 212,
      "24": 224,
      "25": 247,
      "20": 215,
      "21": 242,
      "23": 181,
      "4": 241,
      "18": 188,
      "16": 270,
      "17": 215,
      "19": 179,
      "15": 218,
      "29": 262,
      "27": 245,
      "31": 186,
      "26": 243,
      "28": 166,
      "3": 343,
      "1": 143,
      "33": 312,
      "35": 308,
      "32": 245,
      "30": 297,
      "14": 166,
      "0": 274,
      "2": 295
    },
    "total_satellites": 8695
  },
  "phase2_results": {
    "phase": "Phase 2 - Orbital Diversity Filtering",
    "input_count": 8695,
    "output_count": 500,
    "reduction_ratio": 0.05750431282346176,
    "selected_satellites": [
      {
        "OBJECT_NAME": "STARLINK-5174",
        "OBJECT_ID": "2022-136S",
        "EPOCH": "2025-07-31T10:11:18.411360",
        "MEAN_MOTION": 15.08838053,
        "ECCENTRICITY": 0.0001104,
        "INCLINATION": 53.2167,
        "RA_OF_ASC_NODE": 257.1938,
        "ARG_OF_PERICENTER": 79.3259,
        "MEAN_ANOMALY": 280.7858,
        "EPHEMERIS_TYPE": 0,
        "CLASSIFICATION_TYPE": "U",
        "NORAD_CAT_ID": 54067,
        "ELEMENT_SET_NO": 999,
        "REV_AT_EPOCH": 15344,
        "BSTAR": -2.3786e-05,
        "MEAN_MOTION_DOT": -6.66e-06,
        "MEAN_MOTION_DDOT": 0,
        "constellation": "starlink",
        "quality_scores": {
          "orbital_stability": 21.3555049,
          "coverage_uniformity": 20,
          "handover_frequency": 23.577088888888888,
          "signal_quality": 22,
          "total_score": 86.93259378888888
        }
      },
      {
        "OBJECT_NAME": "STARLINK-5181",
        "OBJECT_ID": "2022-136V",
        "EPOCH": "2025-07-31T10:00:42.066720",
        "MEAN_MOTION": 15.08835051,
        "ECCENTRICITY": 0.0001117,
        "INCLINATION": 53.2166,
        "RA_OF_ASC_NODE": 257.1487,
        "ARG_OF_PERICENTER": 84.8354,
        "MEAN_ANOMALY": 275.2766,
        "EPHEMERIS_TYPE": 0,
        "CLASSIFICATION_TYPE": "U",
        "NORAD_CAT_ID": 54070,
        "ELEMENT_SET_NO": 999,
        "REV_AT_EPOCH": 15344,
        "BSTAR": 5.8349e-05,
        "MEAN_MOTION_DOT": 6.41e-06,
        "MEAN_MOTION_DDOT": 0,
        "constellation": "starlink",
        "quality_scores": {
          "orbital_stability": 21.35540996666667,
          "coverage_uniformity": 20,
          "handover_frequency": 23.57207777777778,
          "signal_quality": 22,
          "total_score": 86.92748774444445
        }
      },
      {
        "OBJECT_NAME": "STARLINK-5288",
        "OBJECT_ID": "2023-010AQ",
        "EPOCH": "2025-07-31T08:22:46.642944",
        "MEAN_MOTION": 14.98328544,
        "ECCENTRICITY": 0.0003772,
        "INCLINATION": 69.9994,
        "RA_OF_ASC_NODE": 202.6934,
        "ARG_OF_PERICENTER": 265.3331,
        "MEAN_ANOMALY": 94.7397,
        "EPHEMERIS_TYPE": 0,
        "CLASSIFICATION_TYPE": "U",
        "NORAD_CAT_ID": 55307,
        "ELEMENT_SET_NO": 999,
        "REV_AT_EPOCH": 14061,
        "BSTAR": -9.5236e-06,
        "MEAN_MOTION_DOT": -2.07e-06,
        "MEAN_MOTION_DDOT": 0,
        "constellation": "starlink",
        "quality_scores": {
          "orbital_stability": 21.66580186666667,
          "coverage_uniformity": 20,
          "handover_frequency": 17.52148888888889,
          "signal_quality": 25,
          "total_score": 84.18729075555555
        }
      },
      {
        "OBJECT_NAME": "STARLINK-5265",
        "OBJECT_ID": "2023-010BA",
        "EPOCH": "2025-07-31T09:22:50.823264",
        "MEAN_MOTION": 14.98330458,
        "ECCENTRICITY": 0.000388,
        "INCLINATION": 69.9997,
        "RA_OF_ASC_NODE": 202.461,
        "ARG_OF_PERICENTER": 265.1366,
        "MEAN_ANOMALY": 94.935,
        "EPHEMERIS_TYPE": 0,
        "CLASSIFICATION_TYPE": "U",
        "NORAD_CAT_ID": 55317,
        "ELEMENT_SET_NO": 999,
        "REV_AT_EPOCH": 14149,
        "BSTAR": -3.3351e-06,
        "MEAN_MOTION_DOT": -1.33e-06,
        "MEAN_MOTION_DDOT": 0,
        "constellation": "starlink",
        "quality_scores": {
          "orbital_stability": 21.664118066666667,
          "coverage_uniformity": 20,
          "handover_frequency": 17.49566666666667,
          "signal_quality": 25,
          "total_score": 84.15978473333334
        }
      },
      {
        "OBJECT_NAME": "STARLINK-6190",
        "OBJECT_ID": "2023-078H",
        "EPOCH": "2025-07-31T10:34:57.373248",
        "MEAN_MOTION": 14.98329504,
        "ECCENTRICITY": 0.0003634,
        "INCLINATION": 69.9992,
        "RA_OF_ASC_NODE": 202.4,
        "ARG_OF_PERICENTER": 268.609,
        "MEAN_ANOMALY": 91.4653,
        "EPHEMERIS_TYPE": 0,
        "CLASSIFICATION_TYPE": "U",
        "NORAD_CAT_ID": 56774,
        "ELEMENT_SET_NO": 999,
        "REV_AT_EPOCH": 11904,
        "BSTAR": 2.9851e-05,
        "MEAN_MOTION_DOT": 2.63e-06,
        "MEAN_MOTION_DDOT": 0,
        "constellation": "starlink",
        "quality_scores": {
          "orbital_stability": 21.667839866666668,
          "coverage_uniformity": 20,
          "handover_frequency": 17.48888888888889,
          "signal_quality": 25,
          "total_score": 84.15672875555556
        }
      },
      {
        "OBJECT_NAME": "STARLINK-5180",
        "OBJECT_ID": "2023-010BB",
        "EPOCH": "2025-07-31T09:16:50.031552",
        "MEAN_MOTION": 14.98331326,
        "ECCENTRICITY": 0.0003787,
        "INCLINATION": 69.9994,
        "RA_OF_ASC_NODE": 202.419,
        "ARG_OF_PERICENTER": 265.0204,
        "MEAN_ANOMALY": 95.0523,
        "EPHEMERIS_TYPE": 0,
        "CLASSIFICATION_TYPE": "U",
        "NORAD_CAT_ID": 55318,
        "ELEMENT_SET_NO": 999,
        "REV_AT_EPOCH": 14149,
        "BSTAR": 2.7184e-05,
        "MEAN_MOTION_DOT": 2.31e-06,
        "MEAN_MOTION_DDOT": 0,
        "constellation": "starlink",
        "quality_scores": {
          "orbital_stability": 21.665484133333337,
          "coverage_uniformity": 20,
          "handover_frequency": 17.491,
          "signal_quality": 25,
          "total_score": 84.15648413333334
        }
      }